start=new Date('2023-05-18T00:00:00.000Z').valueOf();
sats=[{"DECAY_DATE":null,"RCS_SIZE":"LARGE","RA_OF_ASC_NODE":"62.2754","FILE":"3910633","MEAN_MOTION":"15.08848099","MEAN_MOTION_DOT":"-0.00000415","CLASSIFICATION_TYPE":"U","SITE":"AFWTR","GP_ID":"232045332","MEAN_MOTION_DDOT":"0.0000000000000","PERIOD":"95.437","LAUNCH_DATE":"2022-05-13","COUNTRY_CODE":"US","ARG_OF_PERICENTER":"91.0083","INCLINATION":"53.2179","ECCENTRICITY":"0.00012630","CENTER_NAME":"EARTH","MEAN_ANOMALY":"269.1054","REV_AT_EPOCH":"5631","OBJECT_TYPE":"PAYLOAD","OBJECT_NAME":"STARLINK-3966","TIME_SYSTEM":"UTC","PERIAPSIS":"538.847","SEMIMAJOR_AXIS":"6917.856","TLE_LINE2":"2 52552  53.2179  62.2754 0001263  91.0083 269.1054 15.08848099 56311","OBJECT_ID":"2022-051V","APOAPSIS":"540.594","ELEMENT_SET_NO":"999","MEAN_ELEMENT_THEORY":"SGP4","REF_FRAME":"TEME","NORAD_CAT_ID":"52552","EPHEMERIS_TYPE":"0","EPOCH":"2023-05-17T01:45:59.846976","TLE_LINE1":"1 52552U 22051V   23137.07360934 -.00000415  00000-0 -79618-5 0  9995","BSTAR":"-0.00000796180000"},{"TLE_LINE2":"2 52553  53.2170  61.6092 0001214  89.8709 270.2423 15.08846326 56333","SEMIMAJOR_AXIS":"6917.861","OBJECT_ID":"2022-051W","OBJECT_NAME":"STARLINK-3858","TIME_SYSTEM":"UTC","PERIAPSIS":"538.886","OBJECT_TYPE":"PAYLOAD","CENTER_NAME":"EARTH","REV_AT_EPOCH":"5633","MEAN_ANOMALY":"270.2423","INCLINATION":"53.2170","ECCENTRICITY":"0.00012140","ARG_OF_PERICENTER":"89.8709","COUNTRY_CODE":"US","EPHEMERIS_TYPE":"0","EPOCH":"2023-05-17T05:16:35.289696","BSTAR":"0.00004105500000","TLE_LINE1":"1 52553U 22051W   23137.21985289  .00000366  00000-0  41055-4 0  9994","REF_FRAME":"TEME","NORAD_CAT_ID":"52553","MEAN_ELEMENT_THEORY":"SGP4","ELEMENT_SET_NO":"999","APOAPSIS":"540.566","MEAN_MOTION_DOT":"0.00000366","MEAN_MOTION":"15.08846326","FILE":"3910633","DECAY_DATE":null,"RCS_SIZE":"LARGE","RA_OF_ASC_NODE":"61.6092","LAUNCH_DATE":"2022-05-13","PERIOD":"95.437","GP_ID":"232043582","MEAN_MOTION_DDOT":"0.0000000000000","CLASSIFICATION_TYPE":"U","SITE":"AFWTR"},{"RA_OF_ASC_NODE":"66.7374","DECAY_DATE":null,"RCS_SIZE":"LARGE","FILE":"3910633","MEAN_MOTION":"15.08852735","MEAN_MOTION_DOT":"0.00001690","CLASSIFICATION_TYPE":"U","SITE":"AFWTR","GP_ID":"232043832","MEAN_MOTION_DDOT":"0.0000000000000","PERIOD":"95.437","LAUNCH_DATE":"2022-05-13","COUNTRY_CODE":"US","ARG_OF_PERICENTER":"88.4604","ECCENTRICITY":"0.00010670","INCLINATION":"53.2181","MEAN_ANOMALY":"271.6510","REV_AT_EPOCH":"5625","CENTER_NAME":"EARTH","OBJECT_TYPE":"PAYLOAD","PERIAPSIS":"538.968","TIME_SYSTEM":"UTC","OBJECT_NAME":"STARLINK-3770","OBJECT_ID":"2022-051X","TLE_LINE2":"2 52554  53.2181  66.7374 0001067  88.4604 271.6510 15.08852735 56254","SEMIMAJOR_AXIS":"6917.841","APOAPSIS":"540.445","ELEMENT_SET_NO":"999","MEAN_ELEMENT_THEORY":"SGP4","NORAD_CAT_ID":"52554","REF_FRAME":"TEME","TLE_LINE1":"1 52554U 22051X   23137.19178806  .00001690  00000-0  12417-3 0  9991","BSTAR":"0.00012417000000","EPHEMERIS_TYPE":"0","EPOCH":"2023-05-17T04:36:10.488384"},{"LAUNCH_DATE":"2022-05-13","SITE":"AFWTR","CLASSIFICATION_TYPE":"U","MEAN_MOTION_DDOT":"0.0000000000000","GP_ID":"232045082","PERIOD":"95.437","MEAN_MOTION":"15.08843332","MEAN_MOTION_DOT":"-0.00000217","DECAY_DATE":null,"RCS_SIZE":"LARGE","RA_OF_ASC_NODE":"62.2422","FILE":"3910633","MEAN_ELEMENT_THEORY":"SGP4","NORAD_CAT_ID":"52555","REF_FRAME":"TEME","EPOCH":"2023-05-17T01:56:35.868480","EPHEMERIS_TYPE":"0","BSTAR":"0.00000444630000","TLE_LINE1":"1 52555U 22051Y   23137.08097070 -.00000217  00000-0  44463-5 0  9996","APOAPSIS":"540.543","ELEMENT_SET_NO":"999","OBJECT_TYPE":"PAYLOAD","OBJECT_NAME":"STARLINK-3949","TIME_SYSTEM":"UTC","PERIAPSIS":"538.928","TLE_LINE2":"2 52555  53.2178  62.2422 0001167  86.0473 274.0652 15.08843332 56319","SEMIMAJOR_AXIS":"6917.870","OBJECT_ID":"2022-051Y","ARG_OF_PERICENTER":"86.0473","COUNTRY_CODE":"US","INCLINATION":"53.2178","ECCENTRICITY":"0.00011670","CENTER_NAME":"EARTH","MEAN_ANOMALY":"274.0652","REV_AT_EPOCH":"5631"},{"NORAD_CAT_ID":"52556","REF_FRAME":"TEME","TLE_LINE1":"1 52556U 22051Z   23137.16186271  .00021867  00000-0  10628-2 0  9994","BSTAR":"0.00106280000000","EPHEMERIS_TYPE":"0","EPOCH":"2023-05-17T03:53:04.938144","MEAN_ELEMENT_THEORY":"SGP4","ELEMENT_SET_NO":"999","APOAPSIS":"513.985","OBJECT_ID":"2022-051Z","TLE_LINE2":"2 52556  53.2173  61.0712 0004709  79.4617 280.6909 15.18379066 56334","SEMIMAJOR_AXIS":"6888.876","OBJECT_TYPE":"PAYLOAD","TIME_SYSTEM":"UTC","PERIAPSIS":"507.497","OBJECT_NAME":"STARLINK-3763","REV_AT_EPOCH":"5633","MEAN_ANOMALY":"280.6909","CENTER_NAME":"EARTH","COUNTRY_CODE":"US","ARG_OF_PERICENTER":"79.4617","ECCENTRICITY":"0.00047090","INCLINATION":"53.2173","LAUNCH_DATE":"2022-05-13","MEAN_MOTION_DDOT":"0.0000000000000","GP_ID":"232044833","PERIOD":"94.838","SITE":"AFWTR","CLASSIFICATION_TYPE":"U","MEAN_MOTION_DOT":"0.00021867","MEAN_MOTION":"15.18379066","FILE":"3910633","RA_OF_ASC_NODE":"61.0712","DECAY_DATE":null,"RCS_SIZE":"LARGE"},{"GP_ID":"232044081","MEAN_MOTION_DDOT":"0.0000000000000","PERIOD":"95.437","CLASSIFICATION_TYPE":"U","SITE":"AFWTR","LAUNCH_DATE":"2022-05-13","FILE":"3910633","RCS_SIZE":"LARGE","DECAY_DATE":null,"RA_OF_ASC_NODE":"62.2833","MEAN_MOTION_DOT":"-0.00000318","MEAN_MOTION":"15.08844092","ELEMENT_SET_NO":"999","APOAPSIS":"540.685","NORAD_CAT_ID":"52557","REF_FRAME":"TEME","EPOCH":"2023-05-17T01:39:19.355328","EPHEMERIS_TYPE":"0","BSTAR":"-0.00000190420000","TLE_LINE1":"1 52557U 22051AA  23137.06897402 -.00000318  00000-0 -19042-5 0  9991","MEAN_ELEMENT_THEORY":"SGP4","CENTER_NAME":"EARTH","MEAN_ANOMALY":"262.0885","REV_AT_EPOCH":"5631","COUNTRY_CODE":"US","ARG_OF_PERICENTER":"98.0264","INCLINATION":"53.2193","ECCENTRICITY":"0.00013760","SEMIMAJOR_AXIS":"6917.868","TLE_LINE2":"2 52557  53.2193  62.2833 0001376  98.0264 262.0885 15.08844092 56316","OBJECT_ID":"2022-051AA","OBJECT_TYPE":"PAYLOAD","OBJECT_NAME":"STARLINK-3943","TIME_SYSTEM":"UTC","PERIAPSIS":"538.781"},{"CLASSIFICATION_TYPE":"U","SITE":"AFWTR","PERIOD":"95.438","GP_ID":"232044331","MEAN_MOTION_DDOT":"0.0000000000000","LAUNCH_DATE":"2022-05-13","RCS_SIZE":"LARGE","DECAY_DATE":null,"RA_OF_ASC_NODE":"51.9860","FILE":"3910633","MEAN_MOTION":"15.08840717","MEAN_MOTION_DOT":"0.00000773","APOAPSIS":"540.602","ELEMENT_SET_NO":"999","MEAN_ELEMENT_THEORY":"SGP4","EPOCH":"2023-05-17T03:16:02.318880","EPHEMERIS_TYPE":"0","BSTAR":"0.00006667400000","TLE_LINE1":"1 52558U 22051AB  23137.13613795  .00000773  00000-0  66674-4 0  9996","REF_FRAME":"TEME","NORAD_CAT_ID":"52558","INCLINATION":"53.2179","ECCENTRICITY":"0.00012420","ARG_OF_PERICENTER":"101.2015","COUNTRY_CODE":"US","CENTER_NAME":"EARTH","REV_AT_EPOCH":"5645","MEAN_ANOMALY":"258.9117","OBJECT_NAME":"STARLINK-3954","TIME_SYSTEM":"UTC","PERIAPSIS":"538.884","OBJECT_TYPE":"PAYLOAD","TLE_LINE2":"2 52558  53.2179  51.9860 0001242 101.2015 258.9117 15.08840717 56456","SEMIMAJOR_AXIS":"6917.878","OBJECT_ID":"2022-051AB"},{"CLASSIFICATION_TYPE":"U","SITE":"AFWTR","PERIOD":"95.437","MEAN_MOTION_DDOT":"0.0000000000000","GP_ID":"232044583","LAUNCH_DATE":"2022-05-13","RA_OF_ASC_NODE":"52.1182","DECAY_DATE":null,"RCS_SIZE":"LARGE","FILE":"3910633","MEAN_MOTION":"15.08848044","MEAN_MOTION_DOT":"0.00002363","APOAPSIS":"540.572","ELEMENT_SET_NO":"999","MEAN_ELEMENT_THEORY":"SGP4","TLE_LINE1":"1 52559U 22051AC  23137.14719518  .00002363  00000-0  16644-3 0  9996","BSTAR":"0.00016644000000","EPHEMERIS_TYPE":"0","EPOCH":"2023-05-17T03:31:57.663552","REF_FRAME":"TEME","NORAD_CAT_ID":"52559","ECCENTRICITY":"0.00012300","INCLINATION":"53.2181","ARG_OF_PERICENTER":"86.2124","COUNTRY_CODE":"US","REV_AT_EPOCH":"5645","MEAN_ANOMALY":"273.9009","CENTER_NAME":"EARTH","TIME_SYSTEM":"UTC","PERIAPSIS":"538.870","OBJECT_NAME":"STARLINK-3953","OBJECT_TYPE":"PAYLOAD","OBJECT_ID":"2022-051AC","SEMIMAJOR_AXIS":"6917.856","TLE_LINE2":"2 52559  53.2181  52.1182 0001230  86.2124 273.9009 15.08848044 56458"},{"PERIOD":"95.438","MEAN_MOTION_DDOT":"0.0000000000000","GP_ID":"232045333","CLASSIFICATION_TYPE":"U","SITE":"AFWTR","LAUNCH_DATE":"2022-05-13","FILE":"3910633","RA_OF_ASC_NODE":"52.3039","RCS_SIZE":"LARGE","DECAY_DATE":null,"MEAN_MOTION_DOT":"0.00000262","MEAN_MOTION":"15.08840247","ELEMENT_SET_NO":"999","APOAPSIS":"540.553","TLE_LINE1":"1 52560U 22051AD  23137.06622065  .00000262  00000-0  34546-4 0  9997","BSTAR":"0.00003454600000","EPHEMERIS_TYPE":"0","EPOCH":"2023-05-17T01:35:21.464160","NORAD_CAT_ID":"52560","REF_FRAME":"TEME","MEAN_ELEMENT_THEORY":"SGP4","MEAN_ANOMALY":"260.6293","REV_AT_EPOCH":"5644","CENTER_NAME":"EARTH","ECCENTRICITY":"0.00011690","INCLINATION":"53.2184","COUNTRY_CODE":"US","ARG_OF_PERICENTER":"99.4831","OBJECT_ID":"2022-051AD","TLE_LINE2":"2 52560  53.2184  52.3039 0001169  99.4831 260.6293 15.08840247 56442","SEMIMAJOR_AXIS":"6917.880","TIME_SYSTEM":"UTC","PERIAPSIS":"538.936","OBJECT_NAME":"STARLINK-3956","OBJECT_TYPE":"PAYLOAD"},{"LAUNCH_DATE":"2022-05-13","CLASSIFICATION_TYPE":"U","SITE":"AFWTR","GP_ID":"232043583","MEAN_MOTION_DDOT":"0.0000000000000","PERIOD":"95.437","MEAN_MOTION":"15.08844248","MEAN_MOTION_DOT":"0.00000150","RCS_SIZE":"LARGE","DECAY_DATE":null,"RA_OF_ASC_NODE":"66.7861","FILE":"3910633","MEAN_ELEMENT_THEORY":"SGP4","REF_FRAME":"TEME","NORAD_CAT_ID":"52561","EPOCH":"2023-05-17T04:20:17.235456","EPHEMERIS_TYPE":"0","TLE_LINE1":"1 52561U 22051AE  23137.18075504  .00000150  00000-0  27545-4 0  9998","BSTAR":"0.00002754500000","APOAPSIS":"540.872","ELEMENT_SET_NO":"999","OBJECT_TYPE":"PAYLOAD","OBJECT_NAME":"STARLINK-3955","TIME_SYSTEM":"UTC","PERIAPSIS":"538.593","TLE_LINE2":"2 52561  53.2182  66.7861 0001647 101.3774 258.7403 15.08844248 56258","SEMIMAJOR_AXIS":"6917.867","OBJECT_ID":"2022-051AE","ARG_OF_PERICENTER":"101.3774","COUNTRY_CODE":"US","INCLINATION":"53.2182","ECCENTRICITY":"0.00016470","CENTER_NAME":"EARTH","REV_AT_EPOCH":"5625","MEAN_ANOMALY":"258.7403"}];
